{
  "type": "Feature",
  "properties": {
    "name": "Peninsular Malaysia"
  },
  "geometry": {
    "type": "MultiPolygon",
    "coordinates": [
      [
        [
          [
            100.119141,
            6.441992
          ],
          [
            100.137988,
            6.488672
          ],
          [
            100.16123,
            6.641602
          ],
          [
            100.176758,
            6.671826
          ],
          [
            100.216602,
            6.686621
          ],
          [
            100.261426,
            6.682715
          ],
          [
            100.34541,
            6.549902
          ],
          [
            100.563867,
            6.467529
          ],
          [
            100.629492,
            6.447998
          ],
          [
            100.715625,
            6.480664
          ],
          [
            100.754492,
            6.460059
          ],
          [
            100.79375,
            6.426172
          ],
          [
            100.816504,
            6.331641
          ],
          [
            100.873926,
            6.24541
          ],
          [
            100.98877,
            6.257666
          ],
          [
            101.029395,
            6.245312
          ],
          [
            101.053516,
            6.242578
          ],
          [
            101.075977,
            6.166064
          ],
          [
            101.086523,
            6.033691
          ],
          [
            101.075586,
            5.956494
          ],
          [
            100.992773,
            5.846191
          ],
          [
            100.981641,
            5.771045
          ],
          [
            101.025195,
            5.724512
          ],
          [
            101.081738,
            5.674902
          ],
          [
            101.113965,
            5.636768
          ],
          [
            101.147656,
            5.643066
          ],
          [
            101.190625,
            5.66875
          ],
          [
            101.229785,
            5.733691
          ],
          [
            101.257031,
            5.789355
          ],
          [
            101.404199,
            5.85166
          ],
          [
            101.556055,
            5.907764
          ],
          [
            101.576758,
            5.902002
          ],
          [
            101.601367,
            5.877148
          ],
          [
            101.65,
            5.795996
          ],
          [
            101.678418,
            5.778809
          ],
          [
            101.719531,
            5.770605
          ],
          [
            101.790723,
            5.779346
          ],
          [
            101.873633,
            5.825293
          ],
          [
            101.917188,
            5.911377
          ],
          [
            101.936133,
            5.979346
          ],
          [
            102.055176,
            6.09668
          ],
          [
            102.068359,
            6.184668
          ],
          [
            102.101074,
            6.242236
          ],
          [
            102.274023,
            6.203418
          ],
          [
            102.340137,
            6.172021
          ],
          [
            102.534375,
            5.862549
          ],
          [
            102.790234,
            5.644922
          ],
          [
            102.898535,
            5.56377
          ],
          [
            102.982422,
            5.524951
          ],
          [
            103.09707,
            5.408447
          ],
          [
            103.196973,
            5.262158
          ],
          [
            103.41582,
            4.850293
          ],
          [
            103.453906,
            4.669482
          ],
          [
            103.46875,
            4.393262
          ],
          [
            103.420508,
            3.976855
          ],
          [
            103.362012,
            3.769141
          ],
          [
            103.37334,
            3.671094
          ],
          [
            103.453516,
            3.520605
          ],
          [
            103.429492,
            3.378564
          ],
          [
            103.44502,
            3.260596
          ],
          [
            103.439453,
            2.933105
          ],
          [
            103.485156,
            2.836572
          ],
          [
            103.537305,
            2.774756
          ],
          [
            103.812207,
            2.580469
          ],
          [
            103.832324,
            2.508496
          ],
          [
            103.967773,
            2.26123
          ],
          [
            104.218555,
            1.722852
          ],
          [
            104.288477,
            1.480664
          ],
          [
            104.280371,
            1.415576
          ],
          [
            104.250098,
            1.388574
          ],
          [
            104.176367,
            1.364893
          ],
          [
            104.114941,
            1.412256
          ],
          [
            104.094238,
            1.446191
          ],
          [
            104.100586,
            1.48833
          ],
          [
            104.076172,
            1.529785
          ],
          [
            104.016016,
            1.579297
          ],
          [
            103.981445,
            1.623633
          ],
          [
            103.991211,
            1.550049
          ],
          [
            103.991504,
            1.454785
          ],
          [
            103.915137,
            1.44668
          ],
          [
            103.816797,
            1.476562
          ],
          [
            103.694531,
            1.449658
          ],
          [
            103.549805,
            1.332812
          ],
          [
            103.480273,
            1.329492
          ],
          [
            103.427344,
            1.429834
          ],
          [
            103.4,
            1.497852
          ],
          [
            103.356836,
            1.546143
          ],
          [
            102.896875,
            1.792334
          ],
          [
            102.727148,
            1.855566
          ],
          [
            102.548242,
            2.042383
          ],
          [
            102.145605,
            2.248486
          ],
          [
            101.889941,
            2.449414
          ],
          [
            101.78125,
            2.573584
          ],
          [
            101.519727,
            2.683643
          ],
          [
            101.406836,
            2.813477
          ],
          [
            101.351367,
            2.838965
          ],
          [
            101.295508,
            2.885205
          ],
          [
            101.354297,
            3.011133
          ],
          [
            101.330176,
            3.14248
          ],
          [
            101.299902,
            3.253271
          ],
          [
            101.11543,
            3.472021
          ],
          [
            101.024805,
            3.624707
          ],
          [
            100.85127,
            3.776709
          ],
          [
            100.781836,
            3.864453
          ],
          [
            100.71543,
            3.966211
          ],
          [
            100.757031,
            4.001807
          ],
          [
            100.795508,
            4.023389
          ],
          [
            100.760254,
            4.097217
          ],
          [
            100.661035,
            4.225732
          ],
          [
            100.614551,
            4.373437
          ],
          [
            100.614551,
            4.652246
          ],
          [
            100.473437,
            5.044287
          ],
          [
            100.352637,
            5.587695
          ],
          [
            100.374023,
            5.777979
          ],
          [
            100.343262,
            5.98418
          ],
          [
            100.263281,
            6.18252
          ],
          [
            100.158398,
            6.324219
          ],
          [
            100.119141,
            6.441992
          ]
        ]
      ],
      [
        [
          [
            104.221582,
            2.731738
          ],
          [
            104.17334,
            2.721338
          ],
          [
            104.146875,
            2.728223
          ],
          [
            104.129102,
            2.767236
          ],
          [
            104.169824,
            2.856836
          ],
          [
            104.184766,
            2.871729
          ],
          [
            104.223242,
            2.774219
          ],
          [
            104.221582,
            2.731738
          ]
        ]
      ],
      [
        [
          [
            100.288965,
            5.294727
          ],
          [
            100.26377,
            5.266992
          ],
          [
            100.191016,
            5.282861
          ],
          [
            100.203906,
            5.446875
          ],
          [
            100.245508,
            5.467773
          ],
          [
            100.310156,
            5.437939
          ],
          [
            100.338867,
            5.410059
          ],
          [
            100.288965,
            5.294727
          ]
        ]
      ],
      [
        [
          [
            99.848047,
            6.465723
          ],
          [
            99.918652,
            6.358594
          ],
          [
            99.883398,
            6.31084
          ],
          [
            99.86582,
            6.29707
          ],
          [
            99.823242,
            6.312744
          ],
          [
            99.782617,
            6.271582
          ],
          [
            99.74375,
            6.263281
          ],
          [
            99.704688,
            6.337549
          ],
          [
            99.656641,
            6.367139
          ],
          [
            99.646289,
            6.418359
          ],
          [
            99.710547,
            6.427344
          ],
          [
            99.749219,
            6.409619
          ],
          [
            99.82168,
            6.44502
          ],
          [
            99.848047,
            6.465723
          ]
        ]
      ],
      [
        [
          [
            101.318555,
            2.988477
          ],
          [
            101.268066,
            2.97041
          ],
          [
            101.26543,
            2.996484
          ],
          [
            101.274219,
            3.032812
          ],
          [
            101.31123,
            3.067383
          ],
          [
            101.328418,
            3.047607
          ],
          [
            101.318555,
            2.988477
          ]
        ]
      ]
    ]
  }
}
